{
  "norad_id": 65957,
  "name": "KUIPER-00128",
  "history": [
    {
      "epoch": "2026-03-28T16:18:14.679648Z",
      "apogee_km": 630.0254240908216,
      "perigee_km": 629.0174425017767,
      "latitude_deg": -6.745136460401749e-06,
      "longitude_deg": -161.50879097805043,
      "height_km": 630.4159163425775,
      "semi_major_axis_km": 7007.658433296299,
      "eccentricity": 7.192e-05,
      "inclination_deg": 51.9,
      "raan_deg": 269.1487,
      "arg_perigee_deg": 107.1491,
      "mean_anomaly_deg": 252.955,
      "mean_motion_rev_day": 14.79937497
    },
    {
      "epoch": "2026-03-30T03:57:35.109216Z",
      "apogee_km": 630.1186004717565,
      "perigee_km": 628.9306616720569,
      "latitude_deg": 2.985005141642164e-05,
      "longitude_deg": 15.622788398525207,
      "height_km": 630.4738918507566,
      "semi_major_axis_km": 7007.661631071906,
      "eccentricity": 8.476e-05,
      "inclination_deg": 51.9014,
      "raan_deg": 262.5797,
      "arg_perigee_deg": 110.0239,
      "mean_anomaly_deg": 250.0815,
      "mean_motion_rev_day": 14.79936484
    },
    {
      "epoch": "2026-03-30T12:03:47.730528Z",
      "apogee_km": 629.9771222748741,
      "perigee_km": 629.0281477155031,
      "latitude_deg": 5.3168769914753435e-05,
      "longitude_deg": -107.75628098767939,
      "height_km": 630.3913648732024,
      "semi_major_axis_km": 7007.639634995188,
      "eccentricity": 6.771e-05,
      "inclination_deg": 51.9,
      "raan_deg": 261.086,
      "arg_perigee_deg": 107.5159,
      "mean_anomaly_deg": 252.5878,
      "mean_motion_rev_day": 14.79943452
    },
    {
      "epoch": "2026-03-30T20:10:00.353568Z",
      "apogee_km": 629.9201960056116,
      "perigee_km": 629.0670870513122,
      "latitude_deg": -1.6236065257721053e-05,
      "longitude_deg": 128.86567009529065,
      "height_km": 630.3611648168829,
      "semi_major_axis_km": 7007.630641528462,
      "eccentricity": 6.087e-05,
      "inclination_deg": 51.9006,
      "raan_deg": 259.5934,
      "arg_perigee_deg": 106.5418,
      "mean_anomaly_deg": 253.5611,
      "mean_motion_rev_day": 14.79946301
    },
    {
      "epoch": "2026-03-31T17:14:10.308768Z",
      "apogee_km": 630.1469539474947,
      "perigee_km": 628.924815796373,
      "latitude_deg": -2.9205484238245794e-05,
      "longitude_deg": 168.0760903482048,
      "height_km": 630.3995510565085,
      "semi_major_axis_km": 7007.672884871933,
      "eccentricity": 8.72e-05,
      "inclination_deg": 51.9,
      "raan_deg": 255.7106,
      "arg_perigee_deg": 101.1343,
      "mean_anomaly_deg": 258.9717,
      "mean_motion_rev_day": 14.79932919
    },
    {
      "epoch": "2026-04-01T17:32:49.148160Z",
      "apogee_km": 629.892909987122,
      "perigee_km": 629.1781273902161,
      "latitude_deg": -8.022371107465154e-06,
      "longitude_deg": 157.93656874925213,
      "height_km": 630.3351859817178,
      "semi_major_axis_km": 7007.672518688669,
      "eccentricity": 5.1e-05,
      "inclination_deg": 51.9006,
      "raan_deg": 251.2313,
      "arg_perigee_deg": 98.6084,
      "mean_anomaly_deg": 261.4936,
      "mean_motion_rev_day": 14.79933035
    },
    {
      "epoch": "2026-04-02T19:28:41.783808Z",
      "apogee_km": 629.8533815774363,
      "perigee_km": 629.1161797661098,
      "latitude_deg": 3.49488054122665e-05,
      "longitude_deg": 123.12402781467394,
      "height_km": 630.2420395781079,
      "semi_major_axis_km": 7007.621780671772,
      "eccentricity": 5.26e-05,
      "inclination_deg": 51.9003,
      "raan_deg": 246.453,
      "arg_perigee_deg": 91.7325,
      "mean_anomaly_deg": 268.3698,
      "mean_motion_rev_day": 14.79949108
    },
    {
      "epoch": "2026-04-02T19:28:41.784672Z",
      "apogee_km": 629.8537319585248,
      "perigee_km": 629.1158293850203,
      "latitude_deg": 3.043288401020803e-05,
      "longitude_deg": 123.12402068310833,
      "height_km": 630.2420501681887,
      "semi_major_axis_km": 7007.621780671772,
      "eccentricity": 5.265e-05,
      "inclination_deg": 51.9003,
      "raan_deg": 246.453,
      "arg_perigee_deg": 91.7325,
      "mean_anomaly_deg": 268.3698,
      "mean_motion_rev_day": 14.79949108
    },
    {
      "epoch": "2026-04-03T16:32:51.539424Z",
      "apogee_km": 630.2910390006255,
      "perigee_km": 628.7605654446197,
      "latitude_deg": 1.0373638561783132e-05,
      "longitude_deg": 162.33357178145417,
      "height_km": 630.3440016684972,
      "semi_major_axis_km": 7007.662802222622,
      "eccentricity": 0.0001092,
      "inclination_deg": 51.8991,
      "raan_deg": 242.5685,
      "arg_perigee_deg": 95.4695,
      "mean_anomaly_deg": 264.6392,
      "mean_motion_rev_day": 14.79936113
    },
    {
      "epoch": "2026-04-04T16:51:29.864736Z",
      "apogee_km": 629.8663501811998,
      "perigee_km": 629.1333513666095,
      "latitude_deg": 5.792529309908502e-06,
      "longitude_deg": 152.1987759662309,
      "height_km": 630.1700331073229,
      "semi_major_axis_km": 7007.636850773904,
      "eccentricity": 5.23e-05,
      "inclination_deg": 51.9012,
      "raan_deg": 238.0918,
      "arg_perigee_deg": 78.0237,
      "mean_anomaly_deg": 282.0784,
      "mean_motion_rev_day": 14.79944334
    },
    {
      "epoch": "2026-04-05T13:55:40.013472Z",
      "apogee_km": 630.0405773410466,
      "perigee_km": 629.0823446534905,
      "latitude_deg": -5.02853389449089e-05,
      "longitude_deg": -168.59154852101958,
      "height_km": 630.3147969488716,
      "semi_major_axis_km": 7007.698460997269,
      "eccentricity": 6.837e-05,
      "inclination_deg": 51.9002,
      "raan_deg": 234.2091,
      "arg_perigee_deg": 90.8882,
      "mean_anomaly_deg": 269.2158,
      "mean_motion_rev_day": 14.79924817
    },
    {
      "epoch": "2026-04-05T18:47:23.812800Z",
      "apogee_km": 629.9248733373488,
      "perigee_km": 629.1988757339468,
      "latitude_deg": 2.789752909913629e-05,
      "longitude_deg": 117.3806328046109,
      "height_km": 630.3039642102469,
      "semi_major_axis_km": 7007.6988745356475,
      "eccentricity": 5.18e-05,
      "inclination_deg": 51.9,
      "raan_deg": 233.3134,
      "arg_perigee_deg": 89.3692,
      "mean_anomaly_deg": 270.733,
      "mean_motion_rev_day": 14.79924686
    },
    {
      "epoch": "2026-04-05T18:47:23.813664Z",
      "apogee_km": 629.9248032603609,
      "perigee_km": 629.1989458109356,
      "latitude_deg": 2.8804643087057673e-05,
      "longitude_deg": 117.38062990216321,
      "height_km": 630.3039649817638,
      "semi_major_axis_km": 7007.6988745356475,
      "eccentricity": 5.179e-05,
      "inclination_deg": 51.9,
      "raan_deg": 233.3134,
      "arg_perigee_deg": 89.3692,
      "mean_anomaly_deg": 270.733,
      "mean_motion_rev_day": 14.79924686
    },
    {
      "epoch": "2026-04-07T14:32:57.820128Z",
      "apogee_km": 629.8877641568833,
      "perigee_km": 629.1715806229649,
      "latitude_deg": 1.3870126365767086e-05,
      "longitude_deg": 171.12988340930497,
      "height_km": 630.2874325129894,
      "semi_major_axis_km": 7007.666672389923,
      "eccentricity": 5.11e-05,
      "inclination_deg": 51.8999,
      "raan_deg": 225.2515,
      "arg_perigee_deg": 91.8677,
      "mean_anomaly_deg": 268.2344,
      "mean_motion_rev_day": 14.79934887
    },
    {
      "epoch": "2026-04-08T14:51:35.880192Z",
      "apogee_km": 629.8162971489683,
      "perigee_km": 629.1938783787318,
      "latitude_deg": 7.975883089429832e-05,
      "longitude_deg": 160.9941483998675,
      "height_km": 630.2795165140369,
      "semi_major_axis_km": 7007.642087763849,
      "eccentricity": 4.441e-05,
      "inclination_deg": 51.9003,
      "raan_deg": 220.7727,
      "arg_perigee_deg": 95.2024,
      "mean_anomaly_deg": 264.899,
      "mean_motion_rev_day": 14.79942675
    },
    {
      "epoch": "2026-04-09T11:55:45.584832Z",
      "apogee_km": 629.9120369473658,
      "perigee_km": 629.1804348175401,
      "latitude_deg": -1.9743579045617736e-05,
      "longitude_deg": -159.7935557844497,
      "height_km": 630.4050744705708,
      "semi_major_axis_km": 7007.683235882452,
      "eccentricity": 5.22e-05,
      "inclination_deg": 51.9011,
      "raan_deg": 216.8908,
      "arg_perigee_deg": 107.9285,
      "mean_anomaly_deg": 252.1734,
      "mean_motion_rev_day": 14.7992964
    },
    {
      "epoch": "2026-04-10T12:14:24.348192Z",
      "apogee_km": 629.8951295692996,
      "perigee_km": 629.1859526021408,
      "latitude_deg": -6.681521410049591e-05,
      "longitude_deg": -169.93281692106956,
      "height_km": 630.3657863349389,
      "semi_major_axis_km": 7007.67754108572,
      "eccentricity": 5.06e-05,
      "inclination_deg": 51.9004,
      "raan_deg": 212.4115,
      "arg_perigee_deg": 102.8853,
      "mean_anomaly_deg": 257.2165,
      "mean_motion_rev_day": 14.79931444
    },
    {
      "epoch": "2026-04-11T14:10:17.605920Z",
      "apogee_km": 629.8776912694811,
      "perigee_km": 629.1783263016041,
      "latitude_deg": 1.5731674415734632e-05,
      "longitude_deg": 155.25237092431993,
      "height_km": 630.3283356432477,
      "semi_major_axis_km": 7007.665008785542,
      "eccentricity": 4.99e-05,
      "inclination_deg": 51.9,
      "raan_deg": 207.6335,
      "arg_perigee_deg": 98.9177,
      "mean_anomaly_deg": 261.1842,
      "mean_motion_rev_day": 14.79935414
    },
    {
      "epoch": "2026-04-13T06:41:21.045120Z",
      "apogee_km": 629.8026138177511,
      "perigee_km": 629.2045817691351,
      "latitude_deg": 2.7756910116557154e-05,
      "longitude_deg": -101.64095028898258,
      "height_km": 630.2950225669406,
      "semi_major_axis_km": 7007.640597793443,
      "eccentricity": 4.267e-05,
      "inclination_deg": 51.9002,
      "raan_deg": 200.1685,
      "arg_perigee_deg": 98.693,
      "mean_anomaly_deg": 261.4081,
      "mean_motion_rev_day": 14.79943147
    }
  ]
}